{
  "norad_id": 65609,
  "name": "STARLINK-35053",
  "history": [
    {
      "epoch": "2026-03-28T18:10:45.668928Z",
      "apogee_km": 549.9528792879546,
      "perigee_km": 549.0628154779624,
      "latitude_deg": -4.333930611332536e-05,
      "longitude_deg": 58.64498320487693,
      "height_km": 552.9685677419477,
      "semi_major_axis_km": 6927.644847382959,
      "eccentricity": 6.424e-05,
      "inclination_deg": 97.6021,
      "raan_deg": 157.5086,
      "arg_perigee_deg": 152.8202,
      "mean_anomaly_deg": 207.3058,
      "mean_motion_rev_day": 15.05651078
    },
    {
      "epoch": "2026-03-29T03:44:57.562656Z",
      "apogee_km": 549.8954985803293,
      "perigee_km": 549.0877370834896,
      "latitude_deg": 1.3826003328616389e-05,
      "longitude_deg": -84.90450632021368,
      "height_km": 552.9171732116865,
      "semi_major_axis_km": 6927.628617831909,
      "eccentricity": 5.83e-05,
      "inclination_deg": 97.6022,
      "raan_deg": 157.9017,
      "arg_perigee_deg": 153.2601,
      "mean_anomaly_deg": 206.8656,
      "mean_motion_rev_day": 15.05656369
    },
    {
      "epoch": "2026-03-30T03:40:27.282720Z",
      "apogee_km": 549.9494497541136,
      "perigee_km": 548.9962106414796,
      "latitude_deg": -2.2924934425184526e-05,
      "longitude_deg": -83.77789607897532,
      "height_km": 552.946830447021,
      "semi_major_axis_km": 6927.609830197796,
      "eccentricity": 6.88e-05,
      "inclination_deg": 97.6021,
      "raan_deg": 158.8847,
      "arg_perigee_deg": 149.1643,
      "mean_anomaly_deg": 210.9624,
      "mean_motion_rev_day": 15.05662494
    },
    {
      "epoch": "2026-03-30T03:40:27.283584Z",
      "apogee_km": 549.9493804780159,
      "perigee_km": 548.9962799175773,
      "latitude_deg": -2.2337512492920046e-05,
      "longitude_deg": -83.77789976680258,
      "height_km": 552.9467709505266,
      "semi_major_axis_km": 6927.609830197796,
      "eccentricity": 6.879e-05,
      "inclination_deg": 97.6021,
      "raan_deg": 158.8847,
      "arg_perigee_deg": 149.1643,
      "mean_anomaly_deg": 210.9624,
      "mean_motion_rev_day": 15.05662494
    },
    {
      "epoch": "2026-03-30T14:50:21.197760Z",
      "apogee_km": 549.8227882067968,
      "perigee_km": 549.1271174144958,
      "latitude_deg": 8.034102669764851e-05,
      "longitude_deg": 108.74721546349028,
      "height_km": 552.5492391302975,
      "semi_major_axis_km": 6927.6119528106465,
      "eccentricity": 5.021e-05,
      "inclination_deg": 97.6025,
      "raan_deg": 159.343,
      "arg_perigee_deg": 268.6185,
      "mean_anomaly_deg": 91.4985,
      "mean_motion_rev_day": 15.05661802
    },
    {
      "epoch": "2026-03-30T18:01:45.655968Z",
      "apogee_km": 550.2967838004979,
      "perigee_km": 548.7336283567174,
      "latitude_deg": -3.9411431254946595e-05,
      "longitude_deg": 60.896608441755795,
      "height_km": 553.0920086556921,
      "semi_major_axis_km": 6927.652206078607,
      "eccentricity": 0.00011282,
      "inclination_deg": 97.6032,
      "raan_deg": 159.4753,
      "arg_perigee_deg": 131.009,
      "mean_anomaly_deg": 229.1234,
      "mean_motion_rev_day": 15.05648679
    },
    {
      "epoch": "2026-03-31T03:35:57.626592Z",
      "apogee_km": 549.9260848851427,
      "perigee_km": 549.0969839085465,
      "latitude_deg": 7.150651602291345e-05,
      "longitude_deg": -82.65390898306903,
      "height_km": 552.8966836742865,
      "semi_major_axis_km": 6927.648534396844,
      "eccentricity": 5.984e-05,
      "inclination_deg": 97.6022,
      "raan_deg": 159.8677,
      "arg_perigee_deg": 140.6327,
      "mean_anomaly_deg": 219.4944,
      "mean_motion_rev_day": 15.05649876
    },
    {
      "epoch": "2026-04-01T03:31:27.810624Z",
      "apogee_km": 549.8568764419952,
      "perigee_km": 549.159401129421,
      "latitude_deg": 3.0822447936724616e-05,
      "longitude_deg": -81.52993594405604,
      "height_km": 552.9004401342036,
      "semi_major_axis_km": 6927.645138785708,
      "eccentricity": 5.034e-05,
      "inclination_deg": 97.6025,
      "raan_deg": 160.85,
      "arg_perigee_deg": 159.8184,
      "mean_anomaly_deg": 200.3063,
      "mean_motion_rev_day": 15.05650983
    },
    {
      "epoch": "2026-04-02T11:25:27.278688Z",
      "apogee_km": 549.7178867225139,
      "perigee_km": 549.1927752238271,
      "latitude_deg": -1.4969889148321153e-05,
      "longitude_deg": 159.971807538996,
      "height_km": 552.7802148248095,
      "semi_major_axis_km": 6927.592330973171,
      "eccentricity": 3.79e-05,
      "inclination_deg": 97.6025,
      "raan_deg": 162.1596,
      "arg_perigee_deg": 171.5676,
      "mean_anomaly_deg": 188.5557,
      "mean_motion_rev_day": 15.05668199
    },
    {
      "epoch": "2026-04-02T22:35:20.763456Z",
      "apogee_km": 550.2549948964433,
      "perigee_km": 548.5869774845296,
      "latitude_deg": 1.264510111343132e-05,
      "longitude_deg": -7.500973381125152,
      "height_km": 552.7115830142823,
      "semi_major_axis_km": 6927.557986190486,
      "eccentricity": 0.00012039,
      "inclination_deg": 97.6032,
      "raan_deg": 162.6182,
      "arg_perigee_deg": 254.4387,
      "mean_anomaly_deg": 105.6707,
      "mean_motion_rev_day": 15.05679396
    },
    {
      "epoch": "2026-04-03T17:43:45.540192Z",
      "apogee_km": 549.6950768799215,
      "perigee_km": 549.4054995512743,
      "latitude_deg": 2.9056148382136863e-05,
      "longitude_deg": 65.39572729621338,
      "height_km": 552.7590878147282,
      "semi_major_axis_km": 6927.687288215598,
      "eccentricity": 2.09e-05,
      "inclination_deg": 97.6027,
      "raan_deg": 163.4042,
      "arg_perigee_deg": 172.8664,
      "mean_anomaly_deg": 187.2566,
      "mean_motion_rev_day": 15.05637242
    },
    {
      "epoch": "2026-04-04T11:16:27.324480Z",
      "apogee_km": 549.709550718956,
      "perigee_km": 549.1179378853922,
      "latitude_deg": -5.6782571758453137e-05,
      "longitude_deg": 162.22189193866785,
      "height_km": 552.6587332406061,
      "semi_major_axis_km": 6927.550744302173,
      "eccentricity": 4.27e-05,
      "inclination_deg": 97.6022,
      "raan_deg": 164.125,
      "arg_perigee_deg": 127.5387,
      "mean_anomaly_deg": 232.5878,
      "mean_motion_rev_day": 15.05681757
    }
  ]
}